NORAD_CAT_ID,OBJECT_NAME,OBJECT_TYPE,EPOCH,MEAN_MOTION,ECCENTRICITY,INCLINATION,RA_OF_ASC_NODE,ARG_OF_PERICENTER,MEAN_ANOMALY,BSTAR,MEAN_MOTION_DOT,MEAN_MOTION_DDOT,TLE_LINE0,TLE_LINE1,TLE_LINE2,SEMIMAJOR_AXIS,PERIOD,APOGEE,PERIGEE,DECAYED
52115.0,STARLINK-3685,PAYLOAD,2022-11-24 08:05:08,15.0884033,0.0001957,53.2178,72.2145,45.6783,314.4369,-2.7642e-05,-7.28e-06,0.0,0 STARLINK-3685,1 52115U 22029AD  22328.33689848 -.00000728  00000-0 -27642-4 0  9999,2 52115  53.2178  72.2145 0001957  45.6783 314.4369 15.08840330 39428,6917.879,95.438,541.0980000000002,538.391,0.0
52115.0,STARLINK-3685,PAYLOAD,2022-11-24 11:15:54,15.08843687,0.0001906,53.2187,71.6204,48.2879,311.8276,-2.4864e-06,-3.28e-06,0.0,0 STARLINK-3685,1 52115U 22029AD  22328.46937534 -.00000328  00000-0 -24864-5 0  9991,2 52115  53.2187  71.6204 0001906  48.2879 311.8276 15.08843687 39444,6917.869000000002,95.437,541.053,538.4159999999998,0.0
52115.0,STARLINK-3685,PAYLOAD,2022-11-24 14:26:40,15.0884424,0.0001864,53.2191,71.0271,45.3766,314.7378,3.1071e-05,2.06e-06,0.0,0 STARLINK-3685,1 52115U 22029AD  22328.60185340  .00000206  00000-0  31071-4 0  9997,2 52115  53.2191  71.0271 0001864  45.3766 314.7378 15.08844240 39466,6917.8669999999975,95.437,541.0219999999998,538.443,0.0
52115.0,STARLINK-3685,PAYLOAD,2022-11-24 23:58:59,15.08832568,0.0002025,53.2194,69.2415,43.7364,316.3788,2.6406e-05,1.32e-06,0.0,0 STARLINK-3685,1 52115U 22029AD  22328.99930181  .00000132  00000-0  26406-4 0  9994,2 52115  53.2194  69.2415 0002025  43.7364 316.3788 15.08832568 39524,6917.903,95.438,541.169,538.367,0.0
52115.0,STARLINK-3685,PAYLOAD,2022-11-25 11:06:41,15.08836537,0.0001927,53.22,67.1615,43.4462,316.6681,9.3951e-05,1.207e-05,0.0,0 STARLINK-3685,1 52115U 22029AD  22329.46297825  .00001207  00000-0  93951-4 0  9991,2 52115  53.2200  67.1615 0001927  43.4462 316.6681 15.08836537 39599,6917.891,95.438,541.089,538.423,0.0
52115.0,STARLINK-3685,PAYLOAD,2022-11-25 14:17:27,15.08837939,0.0002043,53.2188,66.5665,47.5598,312.5567,0.0001082,1.434e-05,0.0,0 STARLINK-3685,1 52115U 22029AD  22329.59545709  .00001434  00000-0  10820-3 0  9997,2 52115  53.2188  66.5665 0002043  47.5598 312.5567 15.08837939 39615,6917.887,95.438,541.165,538.3380000000002,0.0
52115.0,STARLINK-3685,PAYLOAD,2022-11-25 23:49:45,15.08850404,0.0001883,53.2186,64.7824,42.9692,317.1447,0.00014301,1.989e-05,0.0,0 STARLINK-3685,1 52115U 22029AD  22329.99288666  .00001989  00000-0  14301-3 0  9990,2 52115  53.2186  64.7824 0001883  42.9692 317.1447 15.08850404 39671,6917.849,95.437,541.016,538.411,0.0
52115.0,STARLINK-3685,PAYLOAD,2022-11-26 12:32:50,15.08847221,0.0001926,53.219,62.4035,45.499,314.616,6.5857e-05,7.6e-06,0.0,0 STARLINK-3685,1 52115U 22029AD  22330.52280864  .00000760  00000-0  65857-4 0  9992,2 52115  53.2190  62.4035 0001926  45.4990 314.6160 15.08847221 39758,6917.858,95.437,541.056,538.391,0.0
52115.0,STARLINK-3685,PAYLOAD,2022-11-26 14:08:13,15.08849098,0.0001914,53.2193,62.1062,46.1679,313.9471,3.9784e-05,3.45e-06,0.0,0 STARLINK-3685,1 52115U 22029AD  22330.58904803  .00000345  00000-0  39784-4 0  9993,2 52115  53.2193  62.1062 0001914  46.1679 313.9471 15.08849098 39769,6917.853,95.437,541.0419999999998,538.394,0.0
52115.0,STARLINK-3685,PAYLOAD,2022-11-27 12:23:38,15.08838227,0.0002067,53.22,57.9445,45.0794,315.0365,-3.666e-05,-8.72e-06,0.0,0 STARLINK-3685,1 52115U 22029AD  22331.51641349 -.00000872  00000-0 -36660-4 0  9997,2 52115  53.2200  57.9445 0002067  45.0794 315.0365 15.08838227 39904,6917.886,95.438,541.181,538.321,0.0
52115.0,STARLINK-3685,PAYLOAD,2022-11-28 05:52:53,15.08830454,0.0001924,53.2198,54.6712,45.6449,314.4701,-0.00012015,-2.199e-05,0.0,0 STARLINK-3685,1 52115U 22029AD  22332.24506320 -.00002199  00000-0 -12015-3 0  9998,2 52115  53.2198  54.6712 0001924  45.6449 314.4701 15.08830454 40010,6917.91,95.438,541.106,538.444,0.0
52115.0,STARLINK-3685,PAYLOAD,2022-11-28 12:14:25,15.08837897,0.0002001,53.2177,53.4833,41.2736,318.8407,-5.352e-05,-1.14e-05,0.0,0 STARLINK-3685,1 52115U 22029AD  22332.51001651 -.00001140  00000-0 -53520-4 0  9997,2 52115  53.2177  53.4833 0002001  41.2736 318.8407 15.08837897 40059,6917.887,95.438,541.136,538.368,0.0
52115.0,STARLINK-3685,PAYLOAD,2022-11-29 05:43:39,15.08841359,0.0002035,53.2188,50.2131,41.6845,318.4302,0.00010742,1.422e-05,0.0,0 STARLINK-3685,1 52115U 22029AD  22333.23864787  .00001422  00000-0  10742-3 0  9993,2 52115  53.2188  50.2131 0002035  41.6845 318.4302 15.08841359 40169,6917.876,95.437,541.149,538.3330000000002,0.0
52115.0,STARLINK-3685,PAYLOAD,2022-11-29 12:05:11,15.08841403,0.0002031,53.2179,49.0226,41.4571,318.6575,0.00010439,1.374e-05,0.0,0 STARLINK-3685,1 52115U 22029AD  22333.50360768  .00001374  00000-0  10439-3 0  9992,2 52115  53.2179  49.0226 0002031  41.4571 318.6575 15.08841403 40209,6917.876,95.437,541.146,538.336,0.0
52115.0,STARLINK-3685,PAYLOAD,2022-11-30 05:34:27,15.08829327,0.0001985,53.2179,45.7535,37.3799,322.7331,1.7848e-05,-4e-08,0.0,0 STARLINK-3685,1 52115U 22029AD  22334.23226169 -.00000004  00000-0  17848-4 0  9991,2 52115  53.2179  45.7535 0001985  37.3799 322.7331 15.08829327 40317,6917.913000000001,95.438,541.151,538.405,0.0
52115.0,STARLINK-3685,PAYLOAD,2022-11-30 11:56:00,15.08828014,0.0002026,53.2183,44.5643,36.3022,323.8107,4.2091e-05,3.82e-06,0.0,0 STARLINK-3685,1 52115U 22029AD  22334.49722313  .00000382  00000-0  42091-4 0  9997,2 52115  53.2183  44.5643 0002026  36.3022 323.8107 15.08828014 40353,6917.917,95.438,541.184,538.38,0.0
52115.0,STARLINK-3685,PAYLOAD,2022-12-01 13:22:09,15.08841699,0.0002134,53.2168,39.8041,28.6631,331.4478,-4.2247e-05,-9.61e-06,0.0,0 STARLINK-3685,1 52115U 22029AD  22335.55705826 -.00000961  00000-0 -42247-4 0  9993,2 52115  53.2168  39.8041 0002134  28.6631 331.4478 15.08841699 40513,6917.875,95.437,541.216,538.264,0.0
52115.0,STARLINK-3685,PAYLOAD,2022-12-02 03:40:36,15.08854493,0.0001916,53.2171,37.1288,25.2359,334.8726,0.00017863,2.557e-05,0.0,0 STARLINK-3685,1 52115U 22029AD  22336.15320004  .00002557  00000-0  17863-3 0  9997,2 52115  53.2171  37.1288 0001916  25.2359 334.8726 15.08854493 40607,6917.8359999999975,95.437,541.0269999999998,538.376,0.0
52115.0,STARLINK-3685,PAYLOAD,2022-12-02 13:12:55,15.08848035,0.0001817,53.2198,35.3431,28.5013,331.6079,9.5079e-05,1.226e-05,0.0,0 STARLINK-3685,1 52115U 22029AD  22336.55064545  .00001226  00000-0  95079-4 0  9994,2 52115  53.2198  35.3431 0001817  28.5013 331.6079 15.08848035 40666,6917.856,95.437,540.9780000000002,538.464,0.0
52115.0,STARLINK-3685,PAYLOAD,2022-12-02 21:09:52,15.0882913,0.0001959,53.2178,33.8576,24.2417,335.8667,-1.7756e-05,-5.71e-06,0.0,0 STARLINK-3685,1 52115U 22029AD  22336.88186079 -.00000571  00000-0 -17756-4 0  9997,2 52115  53.2178  33.8576 0001959  24.2417 335.8667 15.08829130 40715,6917.9140000000025,95.438,541.134,538.423,0.0
52115.0,STARLINK-3685,PAYLOAD,2022-12-03 09:52:57,15.08842529,0.0002701,53.2182,31.4782,23.0985,337.0128,-6.417e-05,-1.31e-05,0.0,0 STARLINK-3685,1 52115U 22029AD  22337.41177798 -.00001310  00000-0 -64170-4 0  9999,2 52115  53.2182  31.4782 0002701  23.0985 337.0128 15.08842529 40797,6917.873000000001,95.437,541.606,537.869,0.0
52115.0,STARLINK-3685,PAYLOAD,2022-12-03 11:28:20,15.08838827,0.0002141,53.2182,31.1816,32.424,327.6884,-4.9177e-05,-1.071e-05,0.0,0 STARLINK-3685,1 52115U 22029AD  22337.47801900 -.00001071  00000-0 -49177-4 0  9998,2 52115  53.2182  31.1816 0002141  32.4240 327.6884 15.08838827 40800,6917.884,95.438,541.23,538.268,0.0
52115.0,STARLINK-3685,PAYLOAD,2022-12-03 21:00:40,15.08834166,0.0002164,53.2179,29.3973,32.6334,327.4791,-8.589700000000001e-05,-1.655e-05,0.0,0 STARLINK-3685,1 52115U 22029AD  22337.87546355 -.00001655  00000-0 -85897-4 0  9999,2 52115  53.2179  29.3973 0002164  32.6334 327.4791 15.08834166 40863,6917.898,95.438,541.26,538.266,0.0
52115.0,STARLINK-3685,PAYLOAD,2022-12-04 12:54:31,15.08855784,0.0002128,53.218,26.4239,37.7122,322.4019,-0.00041997,-6.969e-05,0.0,0 STARLINK-3685,1 52115U 22029AD  22338.53786033 -.00006969  00000-0 -41997-3 0  9997,2 52115  53.2180  26.4239 0002128  37.7122 322.4019 15.08855784 40967,6917.831999999999,95.437,541.169,538.225,0.0
52115.0,STARLINK-3685,PAYLOAD,2022-12-04 20:51:27,15.0882741,0.0002351,53.2188,24.9378,35.7651,324.3498,4.4218e-05,4.15e-06,0.0,0 STARLINK-3685,1 52115U 22029AD  22338.86906694  .00000415  00000-0  44218-4 0  9998,2 52115  53.2188  24.9378 0002351  35.7651 324.3498 15.08827410 41019,6917.919,95.438,541.41,538.1569999999998,0.0
52115.0,STARLINK-3685,PAYLOAD,2022-12-05 09:34:31,15.0883916,0.0002456,53.2174,22.5596,30.277,329.8364,6.7169e-05,7.81e-06,0.0,0 STARLINK-3685,1 52115U 22029AD  22339.39898014  .00000781  00000-0  67169-4 0  9999,2 52115  53.2174  22.5596 0002456  30.2770 329.8364 15.08839160 41093,6917.8830000000025,95.438,541.447,538.049,0.0
52115.0,STARLINK-3685,PAYLOAD,2022-12-06 12:36:05,15.08832482,0.0002345,53.218,17.5053,33.1963,326.9176,4.3172e-05,3.99e-06,0.0,0 STARLINK-3685,1 52115U 22029AD  22340.52506626  .00000399  00000-0  43172-4 0  9994,2 52115  53.2180  17.5053 0002345  33.1963 326.9176 15.08832482 41263,6917.903,95.438,541.391,538.146,0.0
52115.0,STARLINK-3685,PAYLOAD,2022-12-07 18:48:25,15.08837166,0.0002479,53.2183,11.8538,35.741,324.3748,-4.0924e-05,-9.4e-06,0.0,0 STARLINK-3685,1 52115U 22029AD  22341.78363139 -.00000940  00000-0 -40924-4 0  9999,2 52115  53.2183  11.8538 0002479  35.7410 324.3748 15.08837166 41456,6917.889,95.438,541.469,538.039,0.0
52115.0,STARLINK-3685,PAYLOAD,2022-12-08 02:45:20,15.08847162,0.0002432,53.219,10.3671,35.6695,324.446,6.4734e-05,7.42e-06,0.0,0 STARLINK-3685,1 52115U 22029AD  22342.11482123  .00000742  00000-0  64734-4 0  9995,2 52115  53.2190  10.3671 0002432  35.6695 324.4460 15.08847162 41504,6917.858,95.437,541.406,538.0409999999998,0.0
